[{"OBJECT_NAME":"STARLINK-36618","OBJECT_ID":"2026-033AC","EPOCH":"2026-03-03T04:00:01.999584","MEAN_MOTION":15.98110746,"ECCENTRICITY":0.0002311,"INCLINATION":42.9868,"RA_OF_ASC_NODE":309.6935,"ARG_OF_PERICENTER":273.8824,"MEAN_ANOMALY":297.7206,"EPHEMERIS_TYPE":0,"CLASSIFICATION_TYPE":"U","NORAD_CAT_ID":67847,"ELEMENT_SET_NO":999,"REV_AT_EPOCH":361,"BSTAR":-0.0017316,"MEAN_MOTION_DOT":-0.00831033,"MEAN_MOTION_DDOT":0.0002295},{"OBJECT_NAME":"STARLINK-36818","OBJECT_ID":"2026-035A","EPOCH":"2026-03-03T04:00:01.999584","MEAN_MOTION":16.00947256,"ECCENTRICITY":0.0001301,"INCLINATION":97.2792,"RA_OF_ASC_NODE":353.9789,"ARG_OF_PERICENTER":116.945,"MEAN_ANOMALY":84.8919,"EPHEMERIS_TYPE":0,"CLASSIFICATION_TYPE":"U","NORAD_CAT_ID":67879,"ELEMENT_SET_NO":999,"REV_AT_EPOCH":270,"BSTAR":-0.0014626,"MEAN_MOTION_DOT":-0.00781086,"MEAN_MOTION_DDOT":0.0002094},{"OBJECT_NAME":"STARLINK-36821","OBJECT_ID":"2026-035B","EPOCH":"2026-03-03T04:00:01.999584","MEAN_MOTION":16.01126823,"ECCENTRICITY":0.0001138,"INCLINATION":97.2787,"RA_OF_ASC_NODE":353.9815,"ARG_OF_PERICENTER":115.9813,"MEAN_ANOMALY":91.3924,"EPHEMERIS_TYPE":0,"CLASSIFICATION_TYPE":"U","NORAD_CAT_ID":67880,"ELEMENT_SET_NO":999,"REV_AT_EPOCH":270,"BSTAR":-0.0014413,"MEAN_MOTION_DOT":-0.0077771,"MEAN_MOTION_DDOT":0.00020815},{"OBJECT_NAME":"STARLINK-36808","OBJECT_ID":"2026-035C","EPOCH":"2026-03-03T04:00:01.999584","MEAN_MOTION":16.01008656,"ECCENTRICITY":0.0001557,"INCLINATION":97.2789,"RA_OF_ASC_NODE":353.9799,"ARG_OF_PERICENTER":123.5835,"MEAN_ANOMALY":80.3296,"EPHEMERIS_TYPE":0,"CLASSIFICATION_TYPE":"U","NORAD_CAT_ID":67881,"ELEMENT_SET_NO":999,"REV_AT_EPOCH":270,"BSTAR":-0.0014343,"MEAN_MOTION_DOT":-0.00768798,"MEAN_MOTION_DDOT":0.00020345},{"OBJECT_NAME":"STARLINK-36817","OBJECT_ID":"2026-035D","EPOCH":"2026-03-03T04:00:01.999584","MEAN_MOTION":16.01350414,"ECCENTRICITY":0.0001128,"INCLINATION":97.2782,"RA_OF_ASC_NODE":353.9841,"ARG_OF_PERICENTER":112.7656,"MEAN_ANOMALY":101.3713,"EPHEMERIS_TYPE":0,"CLASSIFICATION_TYPE":"U","NORAD_CAT_ID":67882,"ELEMENT_SET_NO":999,"REV_AT_EPOCH":270,"BSTAR":-0.001429,"MEAN_MOTION_DOT":-0.00780992,"MEAN_MOTION_DDOT":0.00021033},{"OBJECT_NAME":"STARLINK-36856","OBJECT_ID":"2026-035E","EPOCH":"2026-03-03T04:00:01.999584","MEAN_MOTION":16.01249428,"ECCENTRICITY":0.0001238,"INCLINATION":97.2786,"RA_OF_ASC_NODE":353.9827,"ARG_OF_PERICENTER":117.3794,"MEAN_ANOMALY":93.6113,"EPHEMERIS_TYPE":0,"CLASSIFICATION_TYPE":"U","NORAD_CAT_ID":67883,"ELEMENT_SET_NO":999,"REV_AT_EPOCH":270,"BSTAR":-0.0014414,"MEAN_MOTION_DOT":-0.00783204,"MEAN_MOTION_DDOT":0.00021119},{"OBJECT_NAME":"STARLINK-36842","OBJECT_ID":"2026-035F","EPOCH":"2026-03-03T04:00:01.999584","MEAN_MOTION":16.01448893,"ECCENTRICITY":0.0001026,"INCLINATION":97.2782,"RA_OF_ASC_NODE":353.9852,"ARG_OF_PERICENTER":108.6728,"MEAN_ANOMALY":108.3838,"EPHEMERIS_TYPE":0,"CLASSIFICATION_TYPE":"U","NORAD_CAT_ID":67884,"ELEMENT_SET_NO":999,"REV_AT_EPOCH":270,"BSTAR":-0.0014184,"MEAN_MOTION_DOT":-0.00779636,"MEAN_MOTION_DDOT":0.00020989},{"OBJECT_NAME":"STARLINK-36826","OBJECT_ID":"2026-035G","EPOCH":"2026-03-03T04:00:01.999584","MEAN_MOTION":16.01532029,"ECCENTRICITY":0.0001057,"INCLINATION":97.2781,"RA_OF_ASC_NODE":353.9863,"ARG_OF_PERICENTER":108.6884,"MEAN_ANOMALY":110.6596,"EPHEMERIS_TYPE":0,"CLASSIFICATION_TYPE":"U","NORAD_CAT_ID":67885,"ELEMENT_SET_NO":999,"REV_AT_EPOCH":270,"BSTAR":-0.0014111,"MEAN_MOTION_DOT":-0.00779323,"MEAN_MOTION_DDOT":0.00020994},{"OBJECT_NAME":"STARLINK-36390","OBJECT_ID":"2026-035H","EPOCH":"2026-03-03T04:00:01.999584","MEAN_MOTION":16.01651284,"ECCENTRICITY":0.0001166,"INCLINATION":97.2779,"RA_OF_ASC_NODE":353.9878,"ARG_OF_PERICENTER":115.3754,"MEAN_ANOMALY":107.5568,"EPHEMERIS_TYPE":0,"CLASSIFICATION_TYPE":"U","NORAD_CAT_ID":67886,"ELEMENT_SET_NO":999,"REV_AT_EPOCH":275,"BSTAR":-0.0014023,"MEAN_MOTION_DOT":-0.00779801,"MEAN_MOTION_DDOT":0.00021047},{"OBJECT_NAME":"STARLINK-36368","OBJECT_ID":"2026-035J","EPOCH":"2026-03-03T04:00:01.999584","MEAN_MOTION":16.01762506,"ECCENTRICITY":0.0001455,"INCLINATION":97.2777,"RA_OF_ASC_NODE":353.9892,"ARG_OF_PERICENTER":127.0296,"MEAN_ANOMALY":99.3009,"EPHEMERIS_TYPE":0,"CLASSIFICATION_TYPE":"U","NORAD_CAT_ID":67887,"ELEMENT_SET_NO":999,"REV_AT_EPOCH":270,"BSTAR":-0.0013893,"MEAN_MOTION_DOT":-0.00777649,"MEAN_MOTION_DDOT":0.00020966},{"OBJECT_NAME":"STARLINK-36801","OBJECT_ID":"2026-035K","EPOCH":"2026-03-03T04:00:01.999584","MEAN_MOTION":16.01873456,"ECCENTRICITY":0.0001109,"INCLINATION":97.2775,"RA_OF_ASC_NODE":353.9905,"ARG_OF_PERICENTER":73.7384,"MEAN_ANOMALY":155.8546,"EPHEMERIS_TYPE":0,"CLASSIFICATION_TYPE":"U","NORAD_CAT_ID":67888,"ELEMENT_SET_NO":999,"REV_AT_EPOCH":270,"BSTAR":-0.0013803,"MEAN_MOTION_DOT":-0.00777533,"MEAN_MOTION_DDOT":0.00020989},{"OBJECT_NAME":"STARLINK-36372","OBJECT_ID":"2026-035L","EPOCH":"2026-03-03T04:00:01.999584","MEAN_MOTION":16.02097647,"ECCENTRICITY":0.0001098,"INCLINATION":97.277,"RA_OF_ASC_NODE":353.993,"ARG_OF_PERICENTER":93.944,"MEAN_ANOMALY":141.8816,"EPHEMERIS_TYPE":0,"CLASSIFICATION_TYPE":"U","NORAD_CAT_ID":67889,"ELEMENT_SET_NO":999,"REV_AT_EPOCH":270,"BSTAR":-0.0013543,"MEAN_MOTION_DOT":-0.00772915,"MEAN_MOTION_DDOT":0.00020812},{"OBJECT_NAME":"STARLINK-36363","OBJECT_ID":"2026-035M","EPOCH":"2026-03-03T04:00:01.999584","MEAN_MOTION":16.0200528,"ECCENTRICITY":0.0001229,"INCLINATION":97.2775,"RA_OF_ASC_NODE":353.9923,"ARG_OF_PERICENTER":122.292,"MEAN_ANOMALY":110.993,"EPHEMERIS_TYPE":0,"CLASSIFICATION_TYPE":"U","NORAD_CAT_ID":67890,"ELEMENT_SET_NO":999,"REV_AT_EPOCH":270,"BSTAR":-0.0013675,"MEAN_MOTION_DOT":-0.00776224,"MEAN_MOTION_DDOT":0.00020954},{"OBJECT_NAME":"STARLINK-36816","OBJECT_ID":"2026-035N","EPOCH":"2026-03-03T04:00:01.999584","MEAN_MOTION":16.03673818,"ECCENTRICITY":9.81e-5,"INCLINATION":97.2748,"RA_OF_ASC_NODE":354.0118,"ARG_OF_PERICENTER":108.3298,"MEAN_ANOMALY":174.8249,"EPHEMERIS_TYPE":0,"CLASSIFICATION_TYPE":"U","NORAD_CAT_ID":67891,"ELEMENT_SET_NO":999,"REV_AT_EPOCH":259,"BSTAR":-0.0015249,"MEAN_MOTION_DOT":-0.00953158,"MEAN_MOTION_DDOT":0.0003129},{"OBJECT_NAME":"STARLINK-36813","OBJECT_ID":"2026-035P","EPOCH":"2026-03-03T04:00:01.999584","MEAN_MOTION":16.03018114,"ECCENTRICITY":0.0001454,"INCLINATION":97.2751,"RA_OF_ASC_NODE":354.003,"ARG_OF_PERICENTER":130.9183,"MEAN_ANOMALY":131.1376,"EPHEMERIS_TYPE":0,"CLASSIFICATION_TYPE":"U","NORAD_CAT_ID":67892,"ELEMENT_SET_NO":999,"REV_AT_EPOCH":270,"BSTAR":-0.0015867,"MEAN_MOTION_DOT":-0.00954187,"MEAN_MOTION_DDOT":0.0003111},{"OBJECT_NAME":"STARLINK-36803","OBJECT_ID":"2026-035Q","EPOCH":"2026-03-03T04:00:01.999584","MEAN_MOTION":16.0223586,"ECCENTRICITY":0.0001095,"INCLINATION":97.2769,"RA_OF_ASC_NODE":353.9947,"ARG_OF_PERICENTER":84.3033,"MEAN_ANOMALY":155.4816,"EPHEMERIS_TYPE":0,"CLASSIFICATION_TYPE":"U","NORAD_CAT_ID":67893,"ELEMENT_SET_NO":999,"REV_AT_EPOCH":270,"BSTAR":-0.0013593,"MEAN_MOTION_DOT":-0.00781958,"MEAN_MOTION_DDOT":0.00021302}]
